KUIPER-00616            
1 69775U 26151N   26193.83335647  .00052943  00000+0  13798-2 0  9991
2 69775  51.8775 191.7333 0003201 115.1583 207.7818 15.38331490  1300
KUIPER-00617            
1 69776U 26151P   26193.83335647  .00052479  00000+0  13952-2 0  9998
2 69776  51.8790 191.7677 0004098 127.4717 177.3531 15.37720171  1300
KUIPER-00619            
1 69777U 26151Q   26193.83335647  .00053231  00000+0  13807-2 0  9995
2 69777  51.8793 191.7069 0001708  59.2661 273.7423 15.38478067  1670
KUIPER-00621            
1 69778U 26151R   26193.83335647  .00052741  00000+0  13775-2 0  9995
2 69778  51.8785 191.7290 0002053 106.8016 217.4115 15.38269175  2420
KUIPER-00622            
1 69779U 26151S   26193.83335647  .00049897  00000+0  13610-2 0  9992
2 69779  51.8730 191.8333 0006899 140.3578 134.4956 15.36935826  2284
KUIPER-00623            
1 69780U 26151T   26193.83335647  .00052262  00000+0  14050-2 0  9993
2 69780  51.8773 191.7939 0005106 126.2826 167.0930 15.37373334  2402
KUIPER-00626            
1 69781U 26151U   26193.83335647  .00045245  00000+0  12916-2 0  9996
2 69781  51.8715 191.9121 0009805 157.8189  77.8744 15.35536661  2645
KUIPER-00627            
1 69782U 26151V   26193.83335647  .00046226  00000+0  13234-2 0  9991
2 69782  51.8690 191.9302 0010932 160.6120  65.9606 15.35425105  1306
KUIPER-00629            
1 69783U 26151W   26193.83335647  .00049799  00000+0  13592-2 0  9997
2 69783  51.8741 191.8380 0007411 139.7328 132.6823 15.36913594  1975
KUIPER-00631            
1 69784U 26151X   26193.83335647  .00049266  00000+0  13546-2 0  9996
2 69784  51.8710 191.8556 0007938 147.2675 116.4274 15.36685308  1306
KUIPER-00634            
1 69785U 26151Y   26193.83335647  .00052392  00000+0  13950-2 0  9990
2 69785  51.8765 191.7764 0003802 127.0141 175.3674 15.37674255  1372
KUIPER-00639            
1 69786U 26151Z   26193.83335647  .00049061  00000+0  13843-2 0  9991
2 69786  51.8686 191.8932 0009775 154.0953  90.7053 15.35865505  1301
KUIPER-00641            
1 69787U 26151AA  26193.83335647  .00045170  00000+0  13070-2 0  9991
2 69787  51.8676 191.9326 0010967 156.5594  68.4999 15.35102129  2287
KUIPER-00644            
1 69788U 26151AB  26193.83335647  .00049085  00000+0  13573-2 0  9999
2 69788  51.8736 191.8700 0008630 150.0137 106.6943 15.36504468  2586
KUIPER-00646            
1 69789U 26151AC  26193.83335647  .00047780  00000+0  13459-2 0  9993
2 69789  51.8700 191.8900 0009918 155.7148  90.7805 15.35926740  1471
KUIPER-00647            
1 69790U 26151AD  26193.83335647  .00046704  00000+0  13296-2 0  9999
2 69790  51.8663 191.9213 0010743 156.1190  74.2513 15.35598943  2428
KUIPER-00662            
1 69791U 26151AE  26193.83335647  .00048964  00000+0  13522-2 0  9992
2 69791  51.8723 191.8626 0008557 143.4584 116.8391 15.36546902  1301
LINK                    
1 69792U 26152A   26193.89275514  .00173751  00000+0  15261-2 0  9991
2 69792  20.5929 345.1154 0024219 323.4311  36.4483 15.66551006  1497
2026-152B               
1 69793U 26152B   26193.83462574  .00043761  00000+0  41628-3 0  9994
2 69793  20.5990 345.6729 0022324 320.6297  39.2527 15.64623444  1489
ISS OBJECT YJ           
1 69794U 98067YJ  26193.40676478  .00019437  00000+0  34844-3 0  9997
2 69794  51.6302 175.2240 0007802 301.5354  58.4872 15.49914214  1569
ISS OBJECT YK           
1 69795U 98067YK  26193.40414969  .00035221  00000+0  61097-3 0  9992
2 69795  51.6303 175.2070 0006857 311.1581  48.8816 15.50502709  1565
ISS OBJECT YL           
1 69796U 98067YL  26193.40471851  .00027308  00000+0  47886-3 0  9993
2 69796  51.6300 175.2112 0008907 303.4187  56.5949 15.50313816  1555
ISS OBJECT YM           
1 69797U 98067YM  26193.40453950  .00028380  00000+0  49648-3 0  9993
2 69797  51.6301 175.2096 0009640 294.3607  65.6376 15.50351860  1543
ISS OBJECT YN           
1 69798U 98067YN  26193.40489169  .00018589  00000+0  33019-3 0  9990
2 69798  51.6303 175.2115 0009248 305.3124  54.6999 15.50197893  1564
ISS OBJECT YP           
1 69799U 98067YP  26193.40446167  .00027281  00000+0  47760-3 0  9999
2 69799  51.6299 175.2093 0009819 294.6692  65.3274 15.50352677  1555
STARLINK-37520          
1 69819U 26154A   26193.83335647 -.01691985  80195-3 -48796-2 0  9994
2 69819  53.1594 304.9311 0000964  61.0669 102.6536 15.92490009  2284
STARLINK-37553          
1 69820U 26154B   26193.83335647 -.01698533  80867-3 -48670-2 0  9999
2 69820  53.1594 304.9246 0001030  51.5386 115.2193 15.92614634  2289
STARLINK-37561          
1 69821U 26154C   26193.83335647 -.01692259  80411-3 -48192-2 0  9993
2 69821  53.1594 304.9184 0001032  56.2709 113.5432 15.92731719  2285
STARLINK-37521          
1 69822U 26154D   26193.83335647 -.01693316  80612-3 -47880-2 0  9995
2 69822  53.1595 304.9130 0001002  56.2975 116.0791 15.92867755  2286
STARLINK-37628          
1 69823U 26154E   26193.83335647 -.01681779  79697-3 -47256-2 0  9994
2 69823  53.1593 304.9069 0001116  57.2426 118.0802 15.92985412  2280
