OBJECT_NAME,OBJECT_ID,EPOCH,MEAN_MOTION,ECCENTRICITY,INCLINATION,RA_OF_ASC_NODE,ARG_OF_PERICENTER,MEAN_ANOMALY,EPHEMERIS_TYPE,CLASSIFICATION_TYPE,NORAD_CAT_ID,ELEMENT_SET_NO,REV_AT_EPOCH,BSTAR,MEAN_MOTION_DOT,MEAN_MOTION_DDOT
KUIPER-00616,2026-151N,2026-07-12T20:00:01.999008,15.38331490,.0003201,51.8775,191.7333,115.1583,207.7818,0,U,69775,999,130,.13798E-2,.52943E-3,0
KUIPER-00617,2026-151P,2026-07-12T20:00:01.999008,15.37720171,.0004098,51.8790,191.7677,127.4717,177.3531,0,U,69776,999,130,.13952E-2,.52479E-3,0
KUIPER-00619,2026-151Q,2026-07-12T20:00:01.999008,15.38478067,.0001708,51.8793,191.7069,59.2661,273.7423,0,U,69777,999,167,.13807E-2,.53231E-3,0
KUIPER-00621,2026-151R,2026-07-12T20:00:01.999008,15.38269175,.0002053,51.8785,191.7290,106.8016,217.4115,0,U,69778,999,242,.13775E-2,.52741E-3,0
KUIPER-00622,2026-151S,2026-07-12T20:00:01.999008,15.36935826,.0006899,51.8730,191.8333,140.3578,134.4956,0,U,69779,999,228,.1361E-2,.49897E-3,0
KUIPER-00623,2026-151T,2026-07-12T20:00:01.999008,15.37373334,.0005106,51.8773,191.7939,126.2826,167.0930,0,U,69780,999,240,.1405E-2,.52262E-3,0
KUIPER-00626,2026-151U,2026-07-12T20:00:01.999008,15.35536661,.0009805,51.8715,191.9121,157.8189,77.8744,0,U,69781,999,264,.12916E-2,.45245E-3,0
KUIPER-00627,2026-151V,2026-07-12T20:00:01.999008,15.35425105,.0010932,51.8690,191.9302,160.6120,65.9606,0,U,69782,999,130,.13234E-2,.46226E-3,0
KUIPER-00629,2026-151W,2026-07-12T20:00:01.999008,15.36913594,.0007411,51.8741,191.8380,139.7328,132.6823,0,U,69783,999,197,.13592E-2,.49799E-3,0
KUIPER-00631,2026-151X,2026-07-12T20:00:01.999008,15.36685308,.0007938,51.8710,191.8556,147.2675,116.4274,0,U,69784,999,130,.13546E-2,.49266E-3,0
KUIPER-00634,2026-151Y,2026-07-12T20:00:01.999008,15.37674255,.0003802,51.8765,191.7764,127.0141,175.3674,0,U,69785,999,137,.1395E-2,.52392E-3,0
KUIPER-00639,2026-151Z,2026-07-12T20:00:01.999008,15.35865505,.0009775,51.8686,191.8932,154.0953,90.7053,0,U,69786,999,130,.13843E-2,.49061E-3,0
KUIPER-00641,2026-151AA,2026-07-12T20:00:01.999008,15.35102129,.0010967,51.8676,191.9326,156.5594,68.4999,0,U,69787,999,228,.1307E-2,.4517E-3,0
KUIPER-00644,2026-151AB,2026-07-12T20:00:01.999008,15.36504468,.000863,51.8736,191.8700,150.0137,106.6943,0,U,69788,999,258,.13573E-2,.49085E-3,0
KUIPER-00646,2026-151AC,2026-07-12T20:00:01.999008,15.35926740,.0009918,51.8700,191.8900,155.7148,90.7805,0,U,69789,999,147,.13459E-2,.4778E-3,0
KUIPER-00647,2026-151AD,2026-07-12T20:00:01.999008,15.35598943,.0010743,51.8663,191.9213,156.1190,74.2513,0,U,69790,999,242,.13296E-2,.46704E-3,0
KUIPER-00662,2026-151AE,2026-07-12T20:00:01.999008,15.36546902,.0008557,51.8723,191.8626,143.4584,116.8391,0,U,69791,999,130,.13522E-2,.48964E-3,0
LINK,2026-152A,2026-07-12T21:25:34.044096,15.66551006,.0024219,20.5929,345.1154,323.4311,36.4483,0,U,69792,999,149,.15261E-2,.173751E-2,0
2026-152B,2026-152B,2026-07-12T20:01:51.663936,15.64623444,.0022324,20.5990,345.6729,320.6297,39.2527,0,U,69793,999,148,.41628E-3,.43761E-3,0
ISS OBJECT YJ,1998-067YJ,2026-07-12T09:45:44.476992,15.49914214,.00078028,51.6302,175.2240,301.5354,58.4872,0,U,69794,999,156,.34844292E-3,.19437E-3,0
ISS OBJECT YK,1998-067YK,2026-07-12T09:41:58.533216,15.50502709,.00068578,51.6303,175.2070,311.1581,48.8816,0,U,69795,999,156,.61097406E-3,.35221E-3,0
ISS OBJECT YL,1998-067YL,2026-07-12T09:42:47.679264,15.50313816,.00089073,51.6300,175.2112,303.4187,56.5949,0,U,69796,999,155,.47885864E-3,.27308E-3,0
ISS OBJECT YM,1998-067YM,2026-07-12T09:42:32.212800,15.50351860,.00096408,51.6301,175.2096,294.3607,65.6376,0,U,69797,999,154,.49647778E-3,.2838E-3,0
ISS OBJECT YN,1998-067YN,2026-07-12T09:43:02.642016,15.50197893,.00092486,51.6303,175.2115,305.3124,54.6999,0,U,69798,999,156,.33018519E-3,.18589E-3,0
ISS OBJECT YP,1998-067YP,2026-07-12T09:42:25.488288,15.50352677,.00098196,51.6299,175.2093,294.6692,65.3274,0,U,69799,999,155,.47759677E-3,.27281E-3,0
STARLINK-37520,2026-154A,2026-07-12T20:00:01.999008,15.92490009,.0000964,53.1594,304.9311,61.0669,102.6536,0,U,69819,999,228,-.48796E-2,-.1691985E-1,.80195E-3
STARLINK-37553,2026-154B,2026-07-12T20:00:01.999008,15.92614634,.000103,53.1594,304.9246,51.5386,115.2193,0,U,69820,999,228,-.4867E-2,-.1698533E-1,.80867E-3
STARLINK-37561,2026-154C,2026-07-12T20:00:01.999008,15.92731719,.0001032,53.1594,304.9184,56.2709,113.5432,0,U,69821,999,228,-.48192E-2,-.1692259E-1,.80411E-3
STARLINK-37521,2026-154D,2026-07-12T20:00:01.999008,15.92867755,.0001002,53.1595,304.9130,56.2975,116.0791,0,U,69822,999,228,-.4788E-2,-.1693316E-1,.80612E-3
STARLINK-37628,2026-154E,2026-07-12T20:00:01.999008,15.92985412,.0001116,53.1593,304.9069,57.2426,118.0802,0,U,69823,999,228,-.47256E-2,-.1681779E-1,.79697E-3
